NORAD_CAT_ID,OBJECT_NAME,OBJECT_TYPE,EPOCH,MEAN_MOTION,ECCENTRICITY,INCLINATION,RA_OF_ASC_NODE,ARG_OF_PERICENTER,MEAN_ANOMALY,BSTAR,MEAN_MOTION_DOT,MEAN_MOTION_DDOT,TLE_LINE0,TLE_LINE1,TLE_LINE2,SEMIMAJOR_AXIS,PERIOD,APOGEE,PERIGEE,DECAYED
56457.0,STARLINK-5994,PAYLOAD,2023-08-28 14:02:45,14.98327877,0.0003078,70.0004,314.4697,269.6687,90.4119,-8.9187e-06,-1.99e-06,0.0,0 STARLINK-5994,1 56457U 23064K   23240.58525167 -.00000199  00000-0 -89187-5 0  9991,2 56457  70.0004 314.4697 0003078 269.6687  90.4119 14.98327877 16823,6950.199,96.107,574.204,569.925,0.0
56457.0,STARLINK-5994,PAYLOAD,2023-08-28 22:03:25,14.98330378,0.0003083,70.0003,313.6281,268.912,91.1686,-4.9648e-06,-1.52e-06,0.0,0 STARLINK-5994,1 56457U 23064K   23240.91904997 -.00000152  00000-0 -49648-5 0  9997,2 56457  70.0003 313.6281 0003083 268.9120  91.1686 14.98330378 17235,6950.192,96.107,574.199,569.914,0.0
56457.0,STARLINK-5994,PAYLOAD,2023-08-29 09:16:21,14.98355932,0.0003253,69.9996,312.449,265.0344,95.0444,-0.00040769,-4.957e-05,0.0,0 STARLINK-5994,1 56457U 23064K   23241.38636423 -.00004957  00000-0 -40769-3 0  9995,2 56457  69.9996 312.4490 0003253 265.0344  95.0444 14.98355932 17303,6950.113,96.105,574.239,569.717,0.0
56457.0,STARLINK-5994,PAYLOAD,2023-08-29 17:17:02,14.98334629,0.0003265,69.9997,311.6077,268.6051,91.4734,4.3409e-05,4.25e-06,0.0,0 STARLINK-5994,1 56457U 23064K   23241.72016451  .00000425  00000-0  43409-4 0  9995,2 56457  69.9997 311.6077 0003265 268.6051  91.4734 14.98334629 17350,6950.179,96.107,574.313,569.774,0.0
56457.0,STARLINK-5994,PAYLOAD,2023-08-30 07:42:15,14.98328573,0.0003245,69.9996,310.0927,268.2677,91.8111,5.5452e-06,-2.7e-07,0.0,0 STARLINK-5994,1 56457U 23064K   23242.32100920 -.00000027  00000-0  55452-5 0  9998,2 56457  69.9996 310.0927 0003245 268.2677  91.8111 14.98328573 17448,6950.197,96.107,574.318,569.807,0.0
56457.0,STARLINK-5994,PAYLOAD,2023-08-30 12:30:39,14.98329721,0.0003325,69.9995,309.5876,269.8427,90.2351,1.4761e-05,8.3e-07,0.0,0 STARLINK-5994,1 56457U 23064K   23242.52128831  .00000083  00000-0  14761-4 0  9999,2 56457  69.9995 309.5876 0003325 269.8427  90.2351 14.98329721 17111,6950.194,96.107,574.37,569.748,0.0
56457.0,STARLINK-5994,PAYLOAD,2023-08-30 22:07:28,14.98328645,0.0002607,69.9994,308.5778,274.183,85.9031,-1.0552e-05,-2.19e-06,0.0,0 STARLINK-5994,1 56457U 23064K   23242.92185227 -.00000219  00000-0 -10552-4 0  9992,2 56457  69.9994 308.5778 0002607 274.1830  85.9031 14.98328645 17175,6950.197,96.107,573.874,570.25,0.0
56457.0,STARLINK-5994,PAYLOAD,2023-09-01 10:58:27,14.98414485,0.0003544,69.9993,304.7068,260.6913,99.3846,0.0010243,0.00012177,0.0,0 STARLINK-5994,1 56457U 23064K   23244.45725712  .00012177  00000-0  10243-2 0  9990,2 56457  69.9993 304.7068 0003544 260.6913  99.3846 14.98414485 17763,6949.932,96.102,574.26,569.334,0.0
56457.0,STARLINK-5994,PAYLOAD,2023-09-01 14:10:49,14.98329709,0.0003621,69.9992,304.3703,267.679,92.3955,5.4353e-05,5.56e-06,0.0,0 STARLINK-5994,1 56457U 23064K   23244.59084741  .00000556  00000-0  54353-4 0  9995,2 56457  69.9992 304.3703 0003621 267.6790  92.3955 14.98329709 17780,6950.194,96.107,574.575,569.542,0.0
56457.0,STARLINK-5994,PAYLOAD,2023-09-02 12:36:41,14.98332013,0.0003315,69.9994,302.0123,269.9716,90.1063,1.5221e-05,8.9e-07,0.0,0 STARLINK-5994,1 56457U 23064K   23245.52548241  .00000089  00000-0  15221-4 0  9991,2 56457  69.9994 302.0123 0003315 269.9716  90.1063 14.98332013 17560,6950.187,96.107,574.356,569.748,0.0
56457.0,STARLINK-5994,PAYLOAD,2023-09-02 14:12:49,14.98333836,0.000328,69.9998,301.8447,268.8913,91.187,-1.4723e-05,-2.69e-06,0.0,0 STARLINK-5994,1 56457U 23064K   23245.59224259 -.00000269  00000-0 -14723-4 0  9996,2 56457  69.9998 301.8447 0003280 268.8913  91.1870 14.98333836 17930,6950.181,96.107,574.326,569.766,0.0
56457.0,STARLINK-5994,PAYLOAD,2023-09-02 20:37:22,14.9833323,0.0003302,69.9997,301.1711,269.9321,90.1459,-2.2345e-05,-3.6e-06,0.0,0 STARLINK-5994,1 56457U 23064K   23245.85928244 -.00000360  00000-0 -22345-4 0  9991,2 56457  69.9997 301.1711 0003302 269.9321  90.1459 14.98333230 17611,6950.183,96.107,574.343,569.753,0.0
56457.0,STARLINK-5994,PAYLOAD,2023-09-03 09:26:26,14.9833326,0.0003261,69.9995,299.8248,269.0667,91.0119,-1.49e-05,-2.71e-06,0.0,0 STARLINK-5994,1 56457U 23064K   23246.39336092 -.00000271  00000-0 -14900-4 0  9994,2 56457  69.9995 299.8248 0003261 269.0667  91.0119 14.98333260 17699,6950.183,96.107,574.314,569.781,0.0
56457.0,STARLINK-5994,PAYLOAD,2023-09-04 03:03:55,14.9832457,0.0003166,69.9995,297.9733,269.6686,90.411,-4.8456e-05,-6.71e-06,0.0,0 STARLINK-5994,1 56457U 23064K   23247.12772646 -.00000671  00000-0 -48456-4 0  9992,2 56457  69.9995 297.9733 0003166 269.6686  90.4110 14.98324570 18169,6950.21,96.107,574.275,569.874,0.0
56457.0,STARLINK-5994,PAYLOAD,2023-09-04 09:28:28,14.98323079,0.0003179,69.9994,297.2998,270.8581,89.2213,-6.1085e-05,-8.22e-06,0.0,0 STARLINK-5994,1 56457U 23064K   23247.39476866 -.00000822  00000-0 -61085-4 0  9997,2 56457  69.9994 297.2998 0003179 270.8581  89.2213 14.98323079 17843,6950.214,96.107,574.289,569.87,0.0
56457.0,STARLINK-5994,PAYLOAD,2023-09-05 03:05:56,14.9832753,0.0003248,69.999,295.4482,268.3765,91.7022,-1.0698e-05,-2.21e-06,0.0,0 STARLINK-5994,1 56457U 23064K   23248.12912658 -.00000221  00000-0 -10698-4 0  9990,2 56457  69.9990 295.4482 0003248 268.3765  91.7022 14.98327530 18315,6950.201,96.107,574.323,569.808,0.0
56457.0,STARLINK-5994,PAYLOAD,2023-09-05 12:42:44,14.9832913,0.0003266,69.9989,294.4381,268.3888,91.6896,-8.0511e-06,-1.89e-06,0.0,0 STARLINK-5994,1 56457U 23064K   23248.52968591 -.00000189  00000-0 -80511-5 0  9996,2 56457  69.9989 294.4381 0003266 268.3888  91.6896 14.98329130 18019,6950.196,96.107,574.331,569.791,0.0
56457.0,STARLINK-5994,PAYLOAD,2023-09-06 14:20:53,14.98330117,0.0003437,69.9983,291.7437,268.2715,91.805,0.00010935,1.212e-05,0.0,0 STARLINK-5994,1 56457U 23064K   23249.59784214  .00001212  00000-0  10935-3 0  9999,2 56457  69.9983 291.7437 0003437 268.2715  91.8050 14.98330117 18531,6950.193,96.107,574.446,569.669,0.0
56457.0,STARLINK-5994,PAYLOAD,2023-09-07 12:46:46,14.98328874,0.0003496,69.9988,289.3868,272.4365,87.6394,4.527e-05,4.47e-06,0.0,0 STARLINK-5994,1 56457U 23064K   23250.53248483  .00000447  00000-0  45270-4 0  9998,2 56457  69.9988 289.3868 0003496 272.4365  87.6394 14.98328874 18317,6950.196,96.107,574.491,569.632,0.0
56457.0,STARLINK-5994,PAYLOAD,2023-09-08 01:35:51,14.98332301,0.0003242,69.999,288.0415,274.684,85.3948,-2.91e-06,-1.28e-06,0.0,0 STARLINK-5994,1 56457U 23064K   23251.06656324 -.00000128  00000-0 -29100-5 0  9997,2 56457  69.9990 288.0415 0003242 274.6840  85.3948 14.98332301 18753,6950.186,96.107,574.304,569.798,0.0
56457.0,STARLINK-5994,PAYLOAD,2023-09-08 12:48:47,14.98331179,0.0003291,69.9989,286.8624,268.7163,91.3619,-3.3061e-05,-4.88e-06,0.0,0 STARLINK-5994,1 56457U 23064K   23251.53388385 -.00000488  00000-0 -33061-4 0  9997,2 56457  69.9989 286.8624 0003291 268.7163  91.3619 14.98331179 18467,6950.189,96.107,574.342,569.767,0.0
56457.0,STARLINK-5994,PAYLOAD,2023-09-09 01:37:51,14.98330416,0.000334,69.9986,285.5155,269.4543,90.6234,3.5492e-07,-8.9e-07,0.0,0 STARLINK-5994,1 56457U 23064K   23252.06796289 -.00000089  00000-0  35492-6 0  9990,2 56457  69.9986 285.5155 0003340 269.4543  90.6234 14.98330416 18901,6950.192,96.107,574.378,569.735,0.0
56457.0,STARLINK-5994,PAYLOAD,2023-09-09 12:50:48,14.98330803,0.0003371,69.9985,284.3373,268.8814,91.1959,-1.8661e-06,-1.15e-06,0.0,0 STARLINK-5994,1 56457U 23064K   23252.53528231 -.00000115  00000-0 -18661-5 0  9991,2 56457  69.9985 284.3373 0003371 268.8814  91.1959 14.98330803 18615,6950.19,96.107,574.398,569.712,0.0
56457.0,STARLINK-5994,PAYLOAD,2023-09-10 09:40:33,14.98331871,0.0003414,69.9983,282.1488,268.4523,91.6245,2.1167e-05,1.6e-06,0.0,0 STARLINK-5994,1 56457U 23064K   23253.40315981  .00000160  00000-0  21167-4 0  9996,2 56457  69.9983 282.1488 0003414 268.4523  91.6245 14.98331871 19101,6950.187,96.107,574.425,569.679,0.0
56457.0,STARLINK-5994,PAYLOAD,2023-09-10 11:16:41,14.98331905,0.0003413,69.9983,281.9804,268.4713,91.6055,2.115e-05,1.59e-06,0.0,0 STARLINK-5994,1 56457U 23064K   23253.46991970  .00000159  00000-0  21150-4 0  9990,2 56457  69.9983 281.9804 0003413 268.4713  91.6055 14.98331905 18757,6950.187,96.107,574.424,569.68,0.0
56457.0,STARLINK-5994,PAYLOAD,2023-09-11 03:18:02,14.98326594,0.0003417,69.9982,280.2967,270.1477,89.9291,-2.5155e-05,-3.93e-06,0.0,0 STARLINK-5994,1 56457U 23064K   23254.13752407 -.00000393  00000-0 -25155-4 0  9996,2 56457  69.9982 280.2967 0003417 270.1477  89.9291 14.98326594 19211,6950.203,96.107,574.443,569.694,0.0
56457.0,STARLINK-5994,PAYLOAD,2023-09-11 11:18:42,14.98328114,0.0003442,69.9983,279.4549,269.4132,90.6633,-3.8149e-05,-5.48e-06,0.0,0 STARLINK-5994,1 56457U 23064K   23254.47132382 -.00000548  00000-0 -38149-4 0  9996,2 56457  69.9983 279.4549 0003442 269.4132  90.6633 14.98328114 18909,6950.199,96.107,574.456,569.671,0.0
56457.0,STARLINK-5994,PAYLOAD,2023-09-12 09:44:34,14.9833096,0.000339,69.9981,277.0978,266.8293,93.2478,1.642e-05,1.03e-06,0.0,0 STARLINK-5994,1 56457U 23064K   23255.40596012  .00000103  00000-0  16420-4 0  9997,2 56457  69.9981 277.0978 0003390 266.8293  93.2478 14.98330960 19402,6950.19,96.107,574.411,569.699,0.0
56457.0,STARLINK-5994,PAYLOAD,2023-09-12 11:20:43,14.98330822,0.000333,69.9983,276.9296,265.4366,94.6413,2.4013e-05,1.93e-06,0.0,0 STARLINK-5994,1 56457U 23064K   23255.47271998  .00000193  00000-0  24013-4 0  9993,2 56457  69.9983 276.9296 0003330 265.4366  94.6413 14.98330822 19057,6950.19,96.107,574.37,569.741,0.0
56457.0,STARLINK-5994,PAYLOAD,2023-09-13 09:46:36,14.98321961,0.0003475,69.9987,274.5731,261.1351,98.9414,7.3268e-05,7.81e-06,0.0,0 STARLINK-5994,1 56457U 23064K   23256.40736194  .00000781  00000-0  73268-4 0  9990,2 56457  69.9987 274.5731 0003475 261.1351  98.9414 14.98321961 19553,6950.218,96.108,574.498,569.668,0.0
